ONEWEB-0233             
1 48795U 21045AE  24130.52699017 -.00000264  00000+0 -73580-3 0  9993
2 48795  87.9054  52.2001 0001749  83.7142 276.4187 13.15548051143235
ONEWEB-0190             
1 48796U 21045AF  24130.52303679  .00000106  00000+0  24697-3 0  9998
2 48796  87.9056  52.1641 0002109 109.8554 250.2803 13.15549317143304
ONEWEB-0225             
1 48799U 21045AJ  24130.49926808 -.00000105  00000+0 -31348-3 0  9994
2 48799  87.9057  52.1652 0002068  94.0062 266.1305 13.15550325143352
ONEWEB-0215             
1 48800U 21045AK  24130.54524107  .00000123  00000+0  29251-3 0  9997
2 48800  87.9051  52.1325 0002411 102.6376 257.5024 13.15550691143237
ONEWEB-0239             
1 48802U 21045AM  24130.48342539  .00000049  00000+0  95382-4 0  9995
2 48802  87.9062  52.1575 0002640  98.4887 261.6543 13.15551425143273
